{"type": "FeatureCollection", "features": [ {"type": "Feature", "properties": {"norad_id": 36263, "name": "FENGYUN 1C DEB", "group": "fengyun-1c-debris", "lat": 18.3415512640198, "lon": -142.4293099582459, "alt_km": 742.1625829148188, "timestamp": "2025-12-05T22:40:48.838696+00:00", "meta": {"OBJECT_NAME": "FENGYUN 1C DEB", "OBJECT_ID": "1999-025DWQ", "EPOCH": "2025-11-27T03:35:49.168032", "MEAN_MOTION": 14.45321264, "ECCENTRICITY": 0.00376819, "INCLINATION": 98.9999, "RA_OF_ASC_NODE": 211.2643, "ARG_OF_PERICENTER": 311.7324, "MEAN_ANOMALY": 48.0645, "EPHEMERIS_TYPE": 0, "CLASSIFICATION_TYPE": "U", "NORAD_CAT_ID": 36263, "ELEMENT_SET_NO": 999, "REV_AT_EPOCH": 87760, "BSTAR": 0.002195983, "MEAN_MOTION_DOT": 7.739e-05, "MEAN_MOTION_DDOT": 0}, "tle": {"line1": "1 36263U 99025DWQ 25331.14987463  .00007739  00000+0  21960-2 0  9996", "line2": "2 36263  98.9999 211.2643 0037681 311.7324  48.0645 14.45321264877607"}}, "geometry": {"type": "Point", "coordinates": [-142.4293099582459, 18.3415512640198]}}, {"type": "Feature", "properties": {"norad_id": 36267, "name": "FENGYUN 1C DEB", "group": "fengyun-1c-debris", "lat": 48.429885643390605, "lon": -82.10397901786601, "alt_km": 950.2023548937177, "timestamp": "2025-12-05T22:40:48.838706+00:00", "meta": {"OBJECT_NAME": "FENGYUN 1C DEB", "OBJECT_ID": "1999-025DWU", "EPOCH": "2025-11-30T19:52:05.469312", "MEAN_MOTION": 14.09025042, "ECCENTRICITY": 0.01270184, "INCLINATION": 98.5575, "RA_OF_ASC_NODE": 282.8095, "ARG_OF_PERICENTER": 244.8225, "MEAN_ANOMALY": 141.9466, "EPHEMERIS_TYPE": 0, "CLASSIFICATION_TYPE": "U", "NORAD_CAT_ID": 36267, "ELEMENT_SET_NO": 999, "REV_AT_EPOCH": 86362, "BSTAR": 0.0011045203, "MEAN_MOTION_DOT": 2.02e-05, "MEAN_MOTION_DDOT": 0}, "tle": {"line1": "1 36267U 99025DWU 25334.82784108  .00002020  00000+0  11045-2 0  9990", "line2": "2 36267  98.5575 282.8095 0127018 244.8225 141.9466 14.09025042863628"}}, "geometry": {"type": "Point", "coordinates": [-82.10397901786601, 48.429885643390605]}}, {"type": "Feature", "properties": {"norad_id": 36269, "name": "FENGYUN 1C DEB", "group": "fengyun-1c-debris", "lat": 79.54975158257083, "lon": -138.80541845137117, "alt_km": 931.1033798222288, "timestamp": "2025-12-05T22:40:48.838716+00:00", "meta": {"OBJECT_NAME": "FENGYUN 1C DEB", "OBJECT_ID": "1999-025DWW", "EPOCH": "2025-12-04T02:31:39.906336", "MEAN_MOTION": 14.26965944, "ECCENTRICITY": 0.02335764, "INCLINATION": 99.1075, "RA_OF_ASC_NODE": 279.704, "ARG_OF_PERICENTER": 304.803, "MEAN_ANOMALY": 53.1368, "EPHEMERIS_TYPE": 0, "CLASSIFICATION_TYPE": "U", "NORAD_CAT_ID": 36269, "ELEMENT_SET_NO": 999, "REV_AT_EPOCH": 87593, "BSTAR": 0.0020048601, "MEAN_MOTION_DOT": 6.46e-05, "MEAN_MOTION_DDOT": 0}, "tle": {"line1": "1 36269U 99025DWW 25338.10532299  .00006460  00000+0  20049-2 0  9995", "line2": "2 36269  99.1075 279.7040 0233576 304.8030  53.1368 14.26965944875930"}}, "geometry": {"type": "Point", "coordinates": [-138.80541845137117, 79.54975158257083]}}, {"type": "Feature", "properties": {"norad_id": 36272, "name": "FENGYUN 1C DEB", "group": "fengyun-1c-debris", "lat": 48.30625980946141, "lon": -154.37340689746776, "alt_km": 892.7283674378532, "timestamp": "2025-12-05T22:40:48.838727+00:00", "meta": {"OBJECT_NAME": "FENGYUN 1C DEB", "OBJECT_ID": "1999-025DWZ", "EPOCH": "2025-12-03T09:27:01.103328", "MEAN_MOTION": 14.17212531, "ECCENTRICITY": 0.01683371, "INCLINATION": 99.1372, "RA_OF_ASC_NODE": 213.4136, "ARG_OF_PERICENTER": 294.7142, "MEAN_ANOMALY": 63.659, "EPHEMERIS_TYPE": 0, "CLASSIFICATION_TYPE": "U", "NORAD_CAT_ID": 36272, "ELEMENT_SET_NO": 999, "REV_AT_EPOCH": 63484, "BSTAR": 0.00071361155, "MEAN_MOTION_DOT": 1.606e-05, "MEAN_MOTION_DDOT": 0}, "tle": {"line1": "1 36272U 99025DWZ 25337.39376277  .00001606  00000+0  71361-3 0  9992", "line2": "2 36272  99.1372 213.4136 0168337 294.7142  63.6590 14.17212531634841"}}, "geometry": {"type": "Point", "coordinates": [-154.37340689746776, 48.30625980946141]}}, {"type": "Feature", "properties": {"norad_id": 36273, "name": "FENGYUN 1C DEB", "group": "fengyun-1c-debris", "lat": 47.62865448038249, "lon": -161.83730211207305, "alt_km": 779.310788305902, "timestamp": "2025-12-05T22:40:48.838737+00:00", "meta": {"OBJECT_NAME": "FENGYUN 1C DEB", "OBJECT_ID": "1999-025DXA", "EPOCH": "2025-12-03T21:17:46.785120", "MEAN_MOTION": 14.16550178, "ECCENTRICITY": 0.009769, "INCLINATION": 99.6049, "RA_OF_ASC_NODE": 206.6416, "ARG_OF_PERICENTER": 13.2177, "MEAN_ANOMALY": 347.152, "EPHEMERIS_TYPE": 0, "CLASSIFICATION_TYPE": "U", "NORAD_CAT_ID": 36273, "ELEMENT_SET_NO": 999, "REV_AT_EPOCH": 66108, "BSTAR": 0.00050173, "MEAN_MOTION_DOT": 9.97e-06, "MEAN_MOTION_DDOT": 0}, "tle": {"line1": "1 36273U 99025DXA 25337.88734705  .00000997  00000+0  50173-3 0  9991", "line2": "2 36273  99.6049 206.6416 0097690  13.2177 347.1520 14.16550178661088"}}, "geometry": {"type": "Point", "coordinates": [-161.83730211207305, 47.62865448038249]}}, {"type": "Feature", "properties": {"norad_id": 36274, "name": "FENGYUN 1C DEB", "group": "fengyun-1c-debris", "lat": -72.82900524598381, "lon": -157.55529603194606, "alt_km": 777.1677225800586, "timestamp": "2025-12-05T22:40:48.838747+00:00", "meta": {"OBJECT_NAME": "FENGYUN 1C DEB", "OBJECT_ID": "1999-025DXB", "EPOCH": "2025-12-04T11:48:44.009856", "MEAN_MOTION": 14.23300898, "ECCENTRICITY": 0.0061737, "INCLINATION": 99.1398, "RA_OF_ASC_NODE": 52.3365, "ARG_OF_PERICENTER": 253.3757, "MEAN_ANOMALY": 121.7954, "EPHEMERIS_TYPE": 0, "CLASSIFICATION_TYPE": "U", "NORAD_CAT_ID": 36274, "ELEMENT_SET_NO": 999, "REV_AT_EPOCH": 62868, "BSTAR": 0.0073422, "MEAN_MOTION_DOT": 0.00016953, "MEAN_MOTION_DDOT": 0}, "tle": {"line1": "1 36274U 99025DXB 25338.49217604  .00016953  00000+0  73422-2 0  9994", "line2": "2 36274  99.1398  52.3365 0061737 253.3757 121.7954 14.23300898628680"}}, "geometry": {"type": "Point", "coordinates": [-157.55529603194606, -72.82900524598381]}}, {"type": "Feature", "properties": {"norad_id": 36278, "name": "FENGYUN 1C DEB", "group": "fengyun-1c-debris", "lat": -80.8442534328032, "lon": -16.33465875521012, "alt_km": 807.3780683065524, "timestamp": "2025-12-05T22:40:48.838757+00:00", "meta": {"OBJECT_NAME": "FENGYUN 1C DEB", "OBJECT_ID": "1999-025DXF", "EPOCH": "2025-12-04T01:21:08.443872", "MEAN_MOTION": 14.17353569, "ECCENTRICITY": 0.00613363, "INCLINATION": 99.1236, "RA_OF_ASC_NODE": 256.1206, "ARG_OF_PERICENTER": 315.5831, "MEAN_ANOMALY": 44.0433, "EPHEMERIS_TYPE": 0, "CLASSIFICATION_TYPE": "U", "NORAD_CAT_ID": 36278, "ELEMENT_SET_NO": 999, "REV_AT_EPOCH": 93353, "BSTAR": 0.0008477729, "MEAN_MOTION_DOT": 1.7e-05, "MEAN_MOTION_DDOT": 0}, "tle": {"line1": "1 36278U 99025DXF 25338.05634773  .00001700  00000+0  84777-3 0  9990", "line2": "2 36278  99.1236 256.1206 0061336 315.5831  44.0433 14.17353569933530"}}, "geometry": {"type": "Point", "coordinates": [-16.33465875521012, -80.8442534328032]}}, {"type": "Feature", "properties": {"norad_id": 36279, "name": "FENGYUN 1C DEB", "group": "fengyun-1c-debris", "lat": -0.5595697469675108, "lon": -41.68601203121612, "alt_km": 833.7659267802292, "timestamp": "2025-12-05T22:40:48.838768+00:00", "meta": {"OBJECT_NAME": "FENGYUN 1C DEB", "OBJECT_ID": "1999-025DXG", "EPOCH": "2025-11-25T16:33:32.008320", "MEAN_MOTION": 14.14714647, "ECCENTRICITY": 0.00629921, "INCLINATION": 98.56, "RA_OF_ASC_NODE": 308.3956, "ARG_OF_PERICENTER": 103.3746, "MEAN_ANOMALY": 257.4461, "EPHEMERIS_TYPE": 0, "CLASSIFICATION_TYPE": "U", "NORAD_CAT_ID": 36279, "ELEMENT_SET_NO": 999, "REV_AT_EPOCH": 88798, "BSTAR": 0.00016006279, "MEAN_MOTION_DOT": 2.73e-06, "MEAN_MOTION_DDOT": 0}, "tle": {"line1": "1 36279U 99025DXG 25329.68995380  .00000273  00000+0  16006-3 0  9998", "line2": "2 36279  98.5600 308.3956 0062992 103.3746 257.4461 14.14714647887981"}}, "geometry": {"type": "Point", "coordinates": [-41.68601203121612, -0.5595697469675108]}}, {"type": "Feature", "properties": {"norad_id": 36280, "name": "FENGYUN 1C DEB", "group": "fengyun-1c-debris", "lat": 18.495327098395382, "lon": -167.925547324603, "alt_km": 849.6920290164053, "timestamp": "2025-12-05T22:40:48.838778+00:00", "meta": {"OBJECT_NAME": "FENGYUN 1C DEB", "OBJECT_ID": "1999-025DXH", "EPOCH": "2025-12-02T19:47:23.057952", "MEAN_MOTION": 14.09689517, "ECCENTRICITY": 0.00636593, "INCLINATION": 98.7683, "RA_OF_ASC_NODE": 6.0758, "ARG_OF_PERICENTER": 93.3379, "MEAN_ANOMALY": 80.0221, "EPHEMERIS_TYPE": 0, "CLASSIFICATION_TYPE": "U", "NORAD_CAT_ID": 36280, "ELEMENT_SET_NO": 999, "REV_AT_EPOCH": 86214, "BSTAR": 0.0011452484, "MEAN_MOTION_DOT": 2.005e-05, "MEAN_MOTION_DDOT": 0}, "tle": {"line1": "1 36280U 99025DXH 25336.82457243  .00002005  00000+0  11452-2 0  9999", "line2": "2 36280  98.7683   6.0758 0063659  93.3379  80.0221 14.09689517862145"}}, "geometry": {"type": "Point", "coordinates": [-167.925547324603, 18.495327098395382]}}, {"type": "Feature", "properties": {"norad_id": 36281, "name": "FENGYUN 1C DEB", "group": "fengyun-1c-debris", "lat": -52.56968699528728, "lon": 69.94251384017673, "alt_km": 1091.4442708347424, "timestamp": "2025-12-05T22:40:48.838788+00:00", "meta": {"OBJECT_NAME": "FENGYUN 1C DEB", "OBJECT_ID": "1999-025DXJ", "EPOCH": "2025-12-04T01:25:44.193792", "MEAN_MOTION": 13.60182832, "ECCENTRICITY": 0.02890068, "INCLINATION": 99.2582, "RA_OF_ASC_NODE": 260.4605, "ARG_OF_PERICENTER": 133.3469, "MEAN_ANOMALY": 229.215, "EPHEMERIS_TYPE": 0, "CLASSIFICATION_TYPE": "U", "NORAD_CAT_ID": 36281, "ELEMENT_SET_NO": 999, "REV_AT_EPOCH": 84399, "BSTAR": 0.0042126195, "MEAN_MOTION_DOT": 4.117e-05, "MEAN_MOTION_DDOT": 0}, "tle": {"line1": "1 36281U 99025DXJ 25338.05953928  .00004117  00000+0  42126-2 0  9996", "line2": "2 36281  99.2582 260.4605 0289006 133.3469 229.2150 13.60182832843992"}}, "geometry": {"type": "Point", "coordinates": [69.94251384017673, -52.56968699528728]}}]}